ONEWEB-0238             
1 48784U 21045T   25268.17797651  .00000107  00000+0  25041-3 0  9991
2 48784  87.9005 312.0579 0002200 100.3893 259.7486 13.15549785209535
ONEWEB-0240             
1 48785U 21045U   25268.12318225  .00000841  00000+0  21993-2 0  9999
2 48785  87.9011 312.0552 0001850 102.0955 258.0383 13.15552277209552
ONEWEB-0246             
1 48786U 21045V   25268.19368122  .00000138  00000+0  33330-3 0  9996
2 48786  87.9018 312.0533 0001690  94.1941 265.9382 13.15549950209434
ONEWEB-0210             
1 48787U 21045W   25268.09227502  .00000036  00000+0  62090-4 0  9995
2 48787  87.9014 312.0727 0001167  91.2206 268.9058 13.15549606209461
ONEWEB-0214             
1 48788U 21045X   25268.17704251  .00000083  00000+0  18641-3 0  9990
2 48788  87.9012 312.0433 0001458  86.7427 273.3870 13.15549122209444
ONEWEB-0221             
1 48789U 21045Y   25267.49965917  .00000073  00000+0  15881-3 0  9995
2 48789  87.9006 312.2031 0001640  99.6718 260.4598 13.15546173209440
ONEWEB-0213             
1 48790U 21045Z   25268.17308031  .00000063  00000+0  13266-3 0  9995
2 48790  87.9004 312.0775 0001565  98.4288 261.7020 13.15550024209598
ONEWEB-0212             
1 48791U 21045AA  25268.15011250 -.00000059  00000+0 -19017-3 0  9995
2 48791  87.9010 312.0652 0001904  97.3385 262.7962 13.15549765209588
ONEWEB-0227             
1 48792U 21045AB  25268.14932122 -.00000031  00000+0 -11652-3 0  9992
2 48792  87.9003 312.0833 0001755  99.3230 260.8099 13.15547446209536
ONEWEB-0226             
1 48793U 21045AC  25268.14297609 -.00000005  00000+0 -48537-4 0  9991
2 48793  87.9010 312.0922 0001493  95.1992 264.9309 13.15549474209501
ONEWEB-0224             
1 48794U 21045AD  25268.03048806  .00000202  00000+0  50337-3 0  9990
2 48794  87.9007 312.1497 0002186 122.8174 237.3167 13.15548227209417
ONEWEB-0233             
1 48795U 21045AE  25268.11114958  .00000236  00000+0  59218-3 0  9996
2 48795  87.9007 312.1448 0001656 105.5611 254.5702 13.15550225209449
ONEWEB-0190             
1 48796U 21045AF  25268.17466185  .00000120  00000+0  28474-3 0  9997
2 48796  87.9004 312.0947 0001164 112.5523 247.5730 13.15546961209528
ONEWEB-0236             
1 48797U 21045AG  25268.11604020  .00000226  00000+0  56740-3 0  9998
2 48797  87.9006 312.1174 0001984  96.2685 263.8672 13.15550688209405
ONEWEB-0248             
1 48798U 21045AH  25268.12870568  .00000197  00000+0  48938-3 0  9999
2 48798  87.9014 312.0707 0001677 117.6447 242.4854 13.15550669209560
ONEWEB-0225             
1 48799U 21045AJ  25268.15089834 -.00000028  00000+0 -10825-3 0  9990
2 48799  87.9008 312.0966 0001301 108.3611 251.7661 13.15550204209570
