[{"OBJECT_NAME":"ONEWEB-0238","OBJECT_ID":"2021-045T","EPOCH":"2025-09-25T04:16:17.170464","MEAN_MOTION":13.15549785,"ECCENTRICITY":0.00022004,"INCLINATION":87.9005,"RA_OF_ASC_NODE":312.0579,"ARG_OF_PERICENTER":100.3893,"MEAN_ANOMALY":259.7486,"EPHEMERIS_TYPE":0,"CLASSIFICATION_TYPE":"U","NORAD_CAT_ID":48784,"ELEMENT_SET_NO":999,"REV_AT_EPOCH":20953,"BSTAR":0.00025040919,"MEAN_MOTION_DOT":1.07e-6,"MEAN_MOTION_DDOT":0},{"OBJECT_NAME":"ONEWEB-0240","OBJECT_ID":"2021-045U","EPOCH":"2025-09-25T02:57:22.946400","MEAN_MOTION":13.15552277,"ECCENTRICITY":0.00018507,"INCLINATION":87.9011,"RA_OF_ASC_NODE":312.0552,"ARG_OF_PERICENTER":102.0955,"MEAN_ANOMALY":258.0383,"EPHEMERIS_TYPE":0,"CLASSIFICATION_TYPE":"U","NORAD_CAT_ID":48785,"ELEMENT_SET_NO":999,"REV_AT_EPOCH":20955,"BSTAR":0.0021992929,"MEAN_MOTION_DOT":8.41e-6,"MEAN_MOTION_DDOT":0},{"OBJECT_NAME":"ONEWEB-0246","OBJECT_ID":"2021-045V","EPOCH":"2025-09-25T04:38:54.057408","MEAN_MOTION":13.1554995,"ECCENTRICITY":0.00016904,"INCLINATION":87.9018,"RA_OF_ASC_NODE":312.0533,"ARG_OF_PERICENTER":94.1941,"MEAN_ANOMALY":265.9382,"EPHEMERIS_TYPE":0,"CLASSIFICATION_TYPE":"U","NORAD_CAT_ID":48786,"ELEMENT_SET_NO":999,"REV_AT_EPOCH":20943,"BSTAR":0.00033329819,"MEAN_MOTION_DOT":1.38e-6,"MEAN_MOTION_DDOT":0},{"OBJECT_NAME":"ONEWEB-0210","OBJECT_ID":"2021-045W","EPOCH":"2025-09-25T02:12:52.561728","MEAN_MOTION":13.15549606,"ECCENTRICITY":0.0001167,"INCLINATION":87.9014,"RA_OF_ASC_NODE":312.0727,"ARG_OF_PERICENTER":91.2206,"MEAN_ANOMALY":268.9058,"EPHEMERIS_TYPE":0,"CLASSIFICATION_TYPE":"U","NORAD_CAT_ID":48787,"ELEMENT_SET_NO":999,"REV_AT_EPOCH":20946,"BSTAR":6.2089707e-5,"MEAN_MOTION_DOT":3.6e-7,"MEAN_MOTION_DDOT":0},{"OBJECT_NAME":"ONEWEB-0214","OBJECT_ID":"2021-045X","EPOCH":"2025-09-25T04:14:56.472864","MEAN_MOTION":13.15549122,"ECCENTRICITY":0.0001458,"INCLINATION":87.9012,"RA_OF_ASC_NODE":312.0433,"ARG_OF_PERICENTER":86.7427,"MEAN_ANOMALY":273.387,"EPHEMERIS_TYPE":0,"CLASSIFICATION_TYPE":"U","NORAD_CAT_ID":48788,"ELEMENT_SET_NO":999,"REV_AT_EPOCH":20944,"BSTAR":0.00018640866,"MEAN_MOTION_DOT":8.3e-7,"MEAN_MOTION_DDOT":0},{"OBJECT_NAME":"ONEWEB-0221","OBJECT_ID":"2021-045Y","EPOCH":"2025-09-24T11:59:30.552288","MEAN_MOTION":13.15546173,"ECCENTRICITY":0.00016406,"INCLINATION":87.9006,"RA_OF_ASC_NODE":312.2031,"ARG_OF_PERICENTER":99.6718,"MEAN_ANOMALY":260.4598,"EPHEMERIS_TYPE":0,"CLASSIFICATION_TYPE":"U","NORAD_CAT_ID":48789,"ELEMENT_SET_NO":999,"REV_AT_EPOCH":20944,"BSTAR":0.00015880777,"MEAN_MOTION_DOT":7.3e-7,"MEAN_MOTION_DDOT":0},{"OBJECT_NAME":"ONEWEB-0213","OBJECT_ID":"2021-045Z","EPOCH":"2025-09-25T04:09:14.138784","MEAN_MOTION":13.15550024,"ECCENTRICITY":0.00015653,"INCLINATION":87.9004,"RA_OF_ASC_NODE":312.0775,"ARG_OF_PERICENTER":98.4288,"MEAN_ANOMALY":261.702,"EPHEMERIS_TYPE":0,"CLASSIFICATION_TYPE":"U","NORAD_CAT_ID":48790,"ELEMENT_SET_NO":999,"REV_AT_EPOCH":20959,"BSTAR":0.00013265959,"MEAN_MOTION_DOT":6.3e-7,"MEAN_MOTION_DDOT":0},{"OBJECT_NAME":"ONEWEB-0212","OBJECT_ID":"2021-045AA","EPOCH":"2025-09-25T03:36:09.720000","MEAN_MOTION":13.15549765,"ECCENTRICITY":0.0001904,"INCLINATION":87.901,"RA_OF_ASC_NODE":312.0652,"ARG_OF_PERICENTER":97.3385,"MEAN_ANOMALY":262.7962,"EPHEMERIS_TYPE":0,"CLASSIFICATION_TYPE":"U","NORAD_CAT_ID":48791,"ELEMENT_SET_NO":999,"REV_AT_EPOCH":20958,"BSTAR":-0.00019016848,"MEAN_MOTION_DOT":-5.9e-7,"MEAN_MOTION_DDOT":0},{"OBJECT_NAME":"ONEWEB-0227","OBJECT_ID":"2021-045AB","EPOCH":"2025-09-25T03:35:01.353408","MEAN_MOTION":13.15547446,"ECCENTRICITY":0.00017558,"INCLINATION":87.9003,"RA_OF_ASC_NODE":312.0833,"ARG_OF_PERICENTER":99.323,"MEAN_ANOMALY":260.8099,"EPHEMERIS_TYPE":0,"CLASSIFICATION_TYPE":"U","NORAD_CAT_ID":48792,"ELEMENT_SET_NO":999,"REV_AT_EPOCH":20953,"BSTAR":-0.00011651611,"MEAN_MOTION_DOT":-3.1e-7,"MEAN_MOTION_DDOT":0},{"OBJECT_NAME":"ONEWEB-0226","OBJECT_ID":"2021-045AC","EPOCH":"2025-09-25T03:25:53.134176","MEAN_MOTION":13.15549474,"ECCENTRICITY":0.00014939,"INCLINATION":87.901,"RA_OF_ASC_NODE":312.0922,"ARG_OF_PERICENTER":95.1992,"MEAN_ANOMALY":264.9309,"EPHEMERIS_TYPE":0,"CLASSIFICATION_TYPE":"U","NORAD_CAT_ID":48793,"ELEMENT_SET_NO":999,"REV_AT_EPOCH":20950,"BSTAR":-4.8536549e-5,"MEAN_MOTION_DOT":-5.0e-8,"MEAN_MOTION_DDOT":0},{"OBJECT_NAME":"ONEWEB-0224","OBJECT_ID":"2021-045AD","EPOCH":"2025-09-25T00:43:54.168384","MEAN_MOTION":13.15548227,"ECCENTRICITY":0.00021868,"INCLINATION":87.9007,"RA_OF_ASC_NODE":312.1497,"ARG_OF_PERICENTER":122.8174,"MEAN_ANOMALY":237.3167,"EPHEMERIS_TYPE":0,"CLASSIFICATION_TYPE":"U","NORAD_CAT_ID":48794,"ELEMENT_SET_NO":999,"REV_AT_EPOCH":20941,"BSTAR":0.00050336579,"MEAN_MOTION_DOT":2.02e-6,"MEAN_MOTION_DDOT":0},{"OBJECT_NAME":"ONEWEB-0233","OBJECT_ID":"2021-045AE","EPOCH":"2025-09-25T02:40:03.323712","MEAN_MOTION":13.15550225,"ECCENTRICITY":0.00016566,"INCLINATION":87.9007,"RA_OF_ASC_NODE":312.1448,"ARG_OF_PERICENTER":105.5611,"MEAN_ANOMALY":254.5702,"EPHEMERIS_TYPE":0,"CLASSIFICATION_TYPE":"U","NORAD_CAT_ID":48795,"ELEMENT_SET_NO":999,"REV_AT_EPOCH":20944,"BSTAR":0.00059217864,"MEAN_MOTION_DOT":2.36e-6,"MEAN_MOTION_DDOT":0},{"OBJECT_NAME":"ONEWEB-0190","OBJECT_ID":"2021-045AF","EPOCH":"2025-09-25T04:11:30.783840","MEAN_MOTION":13.15546961,"ECCENTRICITY":0.00011647,"INCLINATION":87.9004,"RA_OF_ASC_NODE":312.0947,"ARG_OF_PERICENTER":112.5523,"MEAN_ANOMALY":247.573,"EPHEMERIS_TYPE":0,"CLASSIFICATION_TYPE":"U","NORAD_CAT_ID":48796,"ELEMENT_SET_NO":999,"REV_AT_EPOCH":20952,"BSTAR":0.00028474026,"MEAN_MOTION_DOT":1.2e-6,"MEAN_MOTION_DDOT":0},{"OBJECT_NAME":"ONEWEB-0236","OBJECT_ID":"2021-045AG","EPOCH":"2025-09-25T02:47:05.873280","MEAN_MOTION":13.15550688,"ECCENTRICITY":0.0001984,"INCLINATION":87.9006,"RA_OF_ASC_NODE":312.1174,"ARG_OF_PERICENTER":96.2685,"MEAN_ANOMALY":263.8672,"EPHEMERIS_TYPE":0,"CLASSIFICATION_TYPE":"U","NORAD_CAT_ID":48797,"ELEMENT_SET_NO":999,"REV_AT_EPOCH":20940,"BSTAR":0.00056739842,"MEAN_MOTION_DOT":2.26e-6,"MEAN_MOTION_DDOT":0},{"OBJECT_NAME":"ONEWEB-0248","OBJECT_ID":"2021-045AH","EPOCH":"2025-09-25T03:05:20.170752","MEAN_MOTION":13.15550669,"ECCENTRICITY":0.00016778,"INCLINATION":87.9014,"RA_OF_ASC_NODE":312.0707,"ARG_OF_PERICENTER":117.6447,"MEAN_ANOMALY":242.4854,"EPHEMERIS_TYPE":0,"CLASSIFICATION_TYPE":"U","NORAD_CAT_ID":48798,"ELEMENT_SET_NO":999,"REV_AT_EPOCH":20956,"BSTAR":0.00048938072,"MEAN_MOTION_DOT":1.97e-6,"MEAN_MOTION_DDOT":0},{"OBJECT_NAME":"ONEWEB-0225","OBJECT_ID":"2021-045AJ","EPOCH":"2025-09-25T03:37:17.616576","MEAN_MOTION":13.15550204,"ECCENTRICITY":0.0001301,"INCLINATION":87.9008,"RA_OF_ASC_NODE":312.0966,"ARG_OF_PERICENTER":108.3611,"MEAN_ANOMALY":251.7661,"EPHEMERIS_TYPE":0,"CLASSIFICATION_TYPE":"U","NORAD_CAT_ID":48799,"ELEMENT_SET_NO":999,"REV_AT_EPOCH":20957,"BSTAR":-0.00010824628,"MEAN_MOTION_DOT":-2.8e-7,"MEAN_MOTION_DDOT":0}]
